[{"OBJECT_NAME":"STARLINK-1954","OBJECT_ID":"2021-009H","EPOCH":"2026-03-09T23:20:25.352160","MEAN_MOTION":15.30849174,"ECCENTRICITY":0.00046184,"INCLINATION":53.0574,"RA_OF_ASC_NODE":8.8654,"ARG_OF_PERICENTER":103.3293,"MEAN_ANOMALY":256.8222,"EPHEMERIS_TYPE":0,"CLASSIFICATION_TYPE":"U","NORAD_CAT_ID":47555,"ELEMENT_SET_NO":999,"REV_AT_EPOCH":28100,"BSTAR":0.0022371791,"MEAN_MOTION_DOT":0.00067883,"MEAN_MOTION_DDOT":0},{"OBJECT_NAME":"STARLINK-35686","OBJECT_ID":"2025-257AD","EPOCH":"2026-03-09T16:22:18.087456","MEAN_MOTION":15.30206182,"ECCENTRICITY":4.482e-5,"INCLINATION":53.1594,"RA_OF_ASC_NODE":216.9578,"ARG_OF_PERICENTER":125.3337,"MEAN_ANOMALY":234.7706,"EPHEMERIS_TYPE":0,"CLASSIFICATION_TYPE":"U","NORAD_CAT_ID":66407,"ELEMENT_SET_NO":999,"REV_AT_EPOCH":1973,"BSTAR":0.00084136399,"MEAN_MOTION_DOT":0.00024647,"MEAN_MOTION_DDOT":0}]
